NORAD_CAT_ID,OBJECT_NAME,OBJECT_TYPE,EPOCH,MEAN_MOTION,ECCENTRICITY,INCLINATION,RA_OF_ASC_NODE,ARG_OF_PERICENTER,MEAN_ANOMALY,BSTAR,MEAN_MOTION_DOT,MEAN_MOTION_DDOT,TLE_LINE0,TLE_LINE1,TLE_LINE2,SEMIMAJOR_AXIS,PERIOD,APOGEE,PERIGEE,DECAYED
56480.0,STARLINK-6214,PAYLOAD,2023-09-14 22:00:00,15.16134101,0.0003281,69.9975,251.1549,265.8061,79.2871,-0.048919,-0.0087862,0.0,0 STARLINK-6214,1 56480U 23064AJ  23257.91667824 -.00878620  00000-0 -48919-1 0  9995,2 56480  69.9975 251.1549 0003281 265.8061  79.2871 15.16134101  5821,6895.675,94.978,519.802,515.277,0.0
56480.0,STARLINK-6214,PAYLOAD,2023-09-15 04:00:00,15.15679853,0.0003228,69.9978,250.5071,267.075,1.9329,-0.05346,-0.00942701,0.0,0 STARLINK-6214,1 56480U 23064AJ  23258.16667824 -.00942701  00000-0 -53460-1 0  9992,2 56480  69.9978 250.5071 0003228 267.0750   1.9329 15.15679853 20292,6897.052,95.007,521.144,516.691,0.0
56480.0,STARLINK-6214,PAYLOAD,2023-09-15 14:00:01,15.14870042,0.0003302,69.9975,249.4286,271.932,109.2993,-0.055751,-0.0095938,0.0,0 STARLINK-6214,1 56480U 23064AJ  23258.58334491 -.00959380  00000-0 -55751-1 0  9995,2 56480  69.9975 249.4286 0003302 271.9320 109.2993 15.14870042  5939,6899.51,95.058,523.653,519.097,0.0
56480.0,STARLINK-6214,PAYLOAD,2023-09-16 06:00:00,15.13547199,0.0003275,69.998,247.7059,271.4796,142.7744,-0.055633,-0.00924899,0.0,0 STARLINK-6214,1 56480U 23064AJ  23259.25001157 -.00924899  00000-0 -55633-1 0  9996,2 56480  69.9980 247.7059 0003275 271.4796 142.7744 15.13547199 20469,6903.53,95.141,527.656,523.134,0.0
56480.0,STARLINK-6214,PAYLOAD,2023-09-16 14:00:01,15.12912015,0.0003239,69.9978,246.8457,272.046,157.5368,-0.058814,-0.00957788,0.0,0 STARLINK-6214,1 56480U 23064AJ  23259.58334491 -.00957788  00000-0 -58814-1 0  9999,2 56480  69.9978 246.8457 0003239 272.0460 157.5368 15.12912015  5958,6905.462,95.181,529.563,525.09,0.0
56480.0,STARLINK-6214,PAYLOAD,2023-09-17 14:00:01,15.10954156,0.0003151,69.9982,244.2707,271.4299,199.4639,-0.062045,-0.00956714,0.0,0 STARLINK-6214,1 56480U 23064AJ  23260.58334491 -.00956714  00000-0 -62045-1 0  9990,2 56480  69.9982 244.2707 0003151 271.4299 199.4639 15.10954156 20660,6911.426,95.304,535.469,531.113,0.0
56480.0,STARLINK-6214,PAYLOAD,2023-09-18 06:00:00,15.09627577,0.0003134,69.9987,242.5586,271.0048,223.5254,-0.061364,-0.0091533,0.0,0 STARLINK-6214,1 56480U 23064AJ  23261.25001157 -.00915330  00000-0 -61364-1 0  9997,2 56480  69.9987 242.5586 0003134 271.0048 223.5254 15.09627577 20765,6915.474,95.388,539.506,535.172,0.0
56480.0,STARLINK-6214,PAYLOAD,2023-09-18 14:00:01,15.0899718,0.0003081,69.9986,241.7036,270.4181,234.746,-0.065536,-0.00957284,0.0,0 STARLINK-6214,1 56480U 23064AJ  23261.58334491 -.00957284  00000-0 -65536-1 0  9992,2 56480  69.9986 241.7036 0003081 270.4181 234.7460 15.08997180  5852,6917.4,95.428,541.396,537.134,0.0
56480.0,STARLINK-6214,PAYLOAD,2023-09-18 22:00:00,15.08322195,0.0003042,69.999,240.8497,264.6069,250.4154,-0.062435,-0.00899679,0.0,0 STARLINK-6214,1 56480U 23064AJ  23261.91667824 -.00899679  00000-0 -62435-1 0  9996,2 56480  69.9990 240.8497 0003042 264.6069 250.4154 15.08322195  5915,6919.464,95.47,543.433,539.224,0.0
56480.0,STARLINK-6214,PAYLOAD,2023-09-19 06:00:00,15.07666652,0.0003085,69.9989,239.9966,270.3981,253.7095,-0.064204,-0.00908091,0.0,0 STARLINK-6214,1 56480U 23064AJ  23262.25001157 -.00908091  00000-0 -64204-1 0  9990,2 56480  69.9989 239.9966 0003085 270.3981 253.7095 15.07666652 20912,6921.469,95.512,545.469,541.199,0.0
56480.0,STARLINK-6214,PAYLOAD,2023-09-20 06:00:00,15.05706073,0.0003054,69.9991,237.4423,270.0958,276.5483,-0.06714,-0.00900939,0.0,0 STARLINK-6214,1 56480U 23064AJ  23263.25001157 -.00900939  00000-0 -67140-1 0  9996,2 56480  69.9991 237.4423 0003054 270.0958 276.5483 15.05706073 21064,6927.476,95.636,551.457,547.226,0.0
56480.0,STARLINK-6214,PAYLOAD,2023-09-20 14:00:01,15.05081142,0.0003058,69.999,236.5926,268.5652,284.0182,-0.072725,-0.00955094,0.0,0 STARLINK-6214,1 56480U 23064AJ  23263.58334491 -.00955094  00000-0 -72725-1 0  9999,2 56480  69.9990 236.5926 0003058 268.5652 284.0182 15.05081142  5962,6929.394,95.676,553.378,549.14,0.0
56480.0,STARLINK-6214,PAYLOAD,2023-09-20 22:00:00,15.04415411,0.0003038,69.9993,235.7439,263.4799,294.2641,-0.070209,-0.00909287,0.0,0 STARLINK-6214,1 56480U 23064AJ  23263.91667824 -.00909287  00000-0 -70209-1 0  9993,2 56480  69.9993 235.7439 0003038 263.4799 294.2641 15.04415411 21161,6931.438,95.718,555.408,551.197,0.0
56480.0,STARLINK-6214,PAYLOAD,2023-09-21 14:00:01,15.03123429,0.0003042,69.9989,234.0488,268.4109,297.3215,-0.0766,-0.00965722,0.0,0 STARLINK-6214,1 56480U 23064AJ  23264.58334491 -.00965722  00000-0 -76600-1 0  9995,2 56480  69.9989 234.0488 0003042 268.4109 297.3215 15.03123429 21263,6935.409,95.801,559.384,555.164,0.0
56480.0,STARLINK-6214,PAYLOAD,2023-09-21 22:00:01,15.02459811,0.0003038,69.9992,233.2027,263.6869,304.9206,-0.074111,-0.00910864,0.0,0 STARLINK-6214,1 56480U 23064AJ  23264.91668981 -.00910864  00000-0 -74111-1 0  9998,2 56480  69.9992 233.2027 0003038 263.6869 304.9206 15.02459811  5894,6937.451,95.843,561.424,557.208,0.0
56480.0,STARLINK-6214,PAYLOAD,2023-09-22 06:00:00,15.01788409,0.0003044,69.9989,232.3572,270.7163,299.8783,-0.073823,-0.00892717,0.0,0 STARLINK-6214,1 56480U 23064AJ  23265.25001157 -.00892717  00000-0 -73823-1 0  9997,2 56480  69.9989 232.3572 0003044 270.7163 299.8783 15.01788409 21367,6939.519,95.886,563.496,559.271,0.0
56480.0,STARLINK-6214,PAYLOAD,2023-09-22 14:00:01,15.01164915,0.0003028,69.9986,231.5127,268.4223,303.4185,-0.08046,-0.00963236,0.0,0 STARLINK-6214,1 56480U 23064AJ  23265.58334491 -.00963236  00000-0 -80460-1 0  9993,2 56480  69.9986 231.5127 0003028 268.4223 303.4185 15.01164915  5959,6941.44,95.926,565.407,561.203,0.0
56480.0,STARLINK-6214,PAYLOAD,2023-09-22 22:00:00,15.00504125,0.0003025,69.9989,230.6691,263.8823,308.423,-0.078237,-0.0091295,0.0,0 STARLINK-6214,1 56480U 23064AJ  23265.91667824 -.00912950  00000-0 -78237-1 0  9995,2 56480  69.9989 230.6691 0003025 263.8823 308.4230 15.00504125 21460,6943.478,95.968,567.443,563.242,0.0
56480.0,STARLINK-6214,PAYLOAD,2023-09-23 14:00:01,14.99311571,0.0002981,69.9989,228.984,269.3691,301.5587,-0.0033103,-0.00040378,0.0,0 STARLINK-6214,1 56480U 23064AJ  23266.58334491 -.00040378  00000-0 -33103-2 0  9990,2 56480  69.9989 228.9840 0002981 269.3691 301.5587 14.99311571 21568,6947.159,96.044,571.095,566.953,0.0
56480.0,STARLINK-6214,PAYLOAD,2023-09-24 06:00:00,14.99278865,0.0003009,70.0001,227.3006,273.4268,294.7715,0.0025988,0.00031831,0.0,0 STARLINK-6214,1 56480U 23064AJ  23267.25001157  .00031831  00000-0  25988-2 0  9999,2 56480  70.0001 227.3006 0003009 273.4268 294.7715 14.99278865 21666,6947.26,96.046,571.216,567.035,0.0
56480.0,STARLINK-6214,PAYLOAD,2023-09-24 14:00:01,14.99308304,0.0002988,69.9998,226.4588,270.198,296.635,-0.0017699,-0.00021688,0.0,0 STARLINK-6214,1 56480U 23064AJ  23267.58334491 -.00021688  00000-0 -17699-2 0  9996,2 56480  69.9998 226.4588 0002988 270.1980 296.6350 14.99308304  5944,6947.169,96.044,571.11,566.958,0.0
56480.0,STARLINK-6214,PAYLOAD,2023-09-24 22:00:00,14.99318034,0.0003,70.0002,225.6172,266.0028,299.4707,0.00073349,8.897e-05,0.0,0 STARLINK-6214,1 56480U 23064AJ  23267.91667824  .00008897  00000-0  73349-3 0  9992,2 56480  70.0002 225.6172 0003000 266.0028 299.4707 14.99318034  5595,6947.139,96.044,571.088,566.92,0.0
56480.0,STARLINK-6214,PAYLOAD,2023-09-25 06:00:00,14.99314009,0.000303,70.0001,224.7754,273.9342,290.2165,-0.001941,-0.00023772,0.0,0 STARLINK-6214,1 56480U 23064AJ  23268.25001157 -.00023772  00000-0 -19410-2 0  9990,2 56480  70.0001 224.7754 0003030 273.9342 290.2165 14.99314009 21817,6947.152,96.044,571.122,566.912,0.0
56480.0,STARLINK-6214,PAYLOAD,2023-09-25 14:00:01,14.99282467,0.0003027,69.9999,223.9335,273.4644,289.4136,-3.5404e-05,-5.27e-06,0.0,0 STARLINK-6214,1 56480U 23064AJ  23268.58335648 -.00000527  00000-0 -35404-4 0  9997,2 56480  69.9999 223.9335 0003027 273.4644 289.4136 14.99282467  5690,6947.249,96.046,571.217,567.011,0.0
56480.0,STARLINK-6214,PAYLOAD,2023-09-25 22:00:00,14.99300917,0.000304,70.0004,223.092,269.886,291.5372,0.0010987,0.00013376,0.0,0 STARLINK-6214,1 56480U 23064AJ  23268.91667824  .00013376  00000-0  10987-2 0  9999,2 56480  70.0004 223.0920 0003040 269.8860 291.5372 14.99300917  5759,6947.192,96.045,571.169,566.945,0.0
56480.0,STARLINK-6214,PAYLOAD,2023-09-26 06:00:00,14.99287306,0.00031,70.0003,222.2502,276.4463,283.6283,0.0018863,0.00023055,0.0,0 STARLINK-6214,1 56480U 23064AJ  23269.25001157  .00023055  00000-0  18863-2 0  9994,2 56480  70.0003 222.2502 0003100 276.4463 283.6283 14.99287306 21965,6947.234,96.046,571.253,566.945,0.0
56480.0,STARLINK-6214,PAYLOAD,2023-09-26 14:00:01,14.99303547,0.0003116,70.0003,221.4083,272.8464,285.9325,-0.00036996,-4.618e-05,0.0,0 STARLINK-6214,1 56480U 23064AJ  23269.58335648 -.00004618  00000-0 -36996-3 0  9999,2 56480  70.0003 221.4083 0003116 272.8464 285.9325 14.99303547  5856,6947.184,96.045,571.214,566.884,0.0
56480.0,STARLINK-6214,PAYLOAD,2023-09-26 22:00:00,14.99334199,0.0003133,70.0008,220.5668,269.851,287.5117,0.00035333,4.236e-05,0.0,0 STARLINK-6214,1 56480U 23064AJ  23269.91667824  .00004236  00000-0  35333-3 0  9998,2 56480  70.0008 220.5668 0003133 269.8510 287.5117 14.99334199  5907,6947.089,96.043,571.131,566.778,0.0
56480.0,STARLINK-6214,PAYLOAD,2023-09-27 06:43:46,14.99317063,0.0002913,69.9995,219.6489,271.5618,88.5208,8.522e-05,9.49e-06,0.0,0 STARLINK-6214,1 56480U 23064AJ  23270.28040129  .00000949  00000-0  85220-4 0  9991,2 56480  69.9995 219.6489 0002913 271.5618  88.5208 14.99317063 22127,6947.142,96.044,571.031,566.983,0.0
56480.0,STARLINK-6214,PAYLOAD,2023-09-28 01:56:40,14.99288836,0.0002949,69.9994,217.6268,273.3689,86.7133,2.3146e-05,1.89e-06,0.0,0 STARLINK-6214,1 56480U 23064AJ  23271.08102226  .00000189  00000-0  23146-4 0  9992,2 56480  69.9994 217.6268 0002949 273.3689  86.7133 14.99288836 22241,6947.229,96.046,571.143,567.046,0.0
